TIANHUI 5B              
1 58201U 23168C   23325.11776941  .00000491  00000+0  61038-4 0  9992
2 58201  97.8275 329.9717 0001135 168.4437 191.6806 14.86885532  2998
TJS-10                  
1 58204U 23169A   23324.88585416  .00000011  00000+0  00000+0 0  9999
2 58204   0.1080  83.8417 0003033 242.7662 225.3260  1.00277241   126
STARLINK-30800          
1 58206U 23170A   23324.91667824 -.01640267  00000+0 -18344-1 0  9999
2 58206  43.0002  85.8221 0001478 281.8841 171.9365 15.65034628  3915
STARLINK-30845          
1 58207U 23170B   23325.16667824 -.01634945  00000+0 -18956-1 0  9993
2 58207  43.0006  84.3263 0001423 280.7797 143.4813 15.64127475  3945
STARLINK-30841          
1 58208U 23170C   23325.16667824 -.01637112  00000+0 -18983-1 0  9993
2 58208  43.0003  84.3246 0001565 272.9648 151.9067 15.64127885  3815
STARLINK-30839          
1 58209U 23170D   23325.16667824 -.01634742  00000+0 -18953-1 0  9997
2 58209  43.0005  84.3215 0001759 270.9633 155.1280 15.64124334  3933
CZ-6A DEB               
1 58202U 23168D   23324.98490898  .00006911  00000+0  77734-3 0  9993
2 58202  97.8269 329.8337 0003948 123.8495 236.3097 14.86996474  2977
CZ-7A R/B               
1 58205U 23169B   23324.48655432  .00618385  42046-5  48430-3 0  9996
2 58205  16.8768 279.6704 7143934 192.2701 130.5392  2.53559574   419
