{
	"ndm": {
		"omm": [
			{
				"header": {
					"CREATION_DATE": "",
					"ORIGINATOR": ""
				},
				"body": {
					"segment": {
						"metadata": {
							"OBJECT_NAME": "TIANHUI 5B",
							"OBJECT_ID": "2023-168C",
							"CENTER_NAME": "EARTH",
							"REF_FRAME": "TEME",
							"TIME_SYSTEM": "UTC",
							"MEAN_ELEMENT_THEORY": "SGP4"
						},
						"data": {
							"meanElements": {
								"EPOCH": "2023-11-21T02:49:35.277024",
								"MEAN_MOTION": 14.86885532,
								"ECCENTRICITY": 0.0001135,
								"INCLINATION": 97.8275,
								"RA_OF_ASC_NODE": 329.9717,
								"ARG_OF_PERICENTER": 168.4437,
								"MEAN_ANOMALY": 191.6806
							},
							"tleParameters": {
								"EPHEMERIS_TYPE": 0,
								"CLASSIFICATION_TYPE": "U",
								"NORAD_CAT_ID": 58201,
								"ELEMENT_SET_NO": 999,
								"REV_AT_EPOCH": 299,
								"BSTAR": 0.000061038,
								"MEAN_MOTION_DOT": 0.00000491,
								"MEAN_MOTION_DDOT": 0
							}
						}
					}
				}
			},
			{
				"header": {
					"CREATION_DATE": "",
					"ORIGINATOR": ""
				},
				"body": {
					"segment": {
						"metadata": {
							"OBJECT_NAME": "CZ-6A DEB",
							"OBJECT_ID": "2023-168D",
							"CENTER_NAME": "EARTH",
							"REF_FRAME": "TEME",
							"TIME_SYSTEM": "UTC",
							"MEAN_ELEMENT_THEORY": "SGP4"
						},
						"data": {
							"meanElements": {
								"EPOCH": "2023-11-20T23:38:16.135872",
								"MEAN_MOTION": 14.86996474,
								"ECCENTRICITY": 0.0003948,
								"INCLINATION": 97.8269,
								"RA_OF_ASC_NODE": 329.8337,
								"ARG_OF_PERICENTER": 123.8495,
								"MEAN_ANOMALY": 236.3097
							},
							"tleParameters": {
								"EPHEMERIS_TYPE": 0,
								"CLASSIFICATION_TYPE": "U",
								"NORAD_CAT_ID": 58202,
								"ELEMENT_SET_NO": 999,
								"REV_AT_EPOCH": 297,
								"BSTAR": 0.00077734,
								"MEAN_MOTION_DOT": 0.00006911,
								"MEAN_MOTION_DDOT": 0
							}
						}
					}
				}
			},
			{
				"header": {
					"CREATION_DATE": "",
					"ORIGINATOR": ""
				},
				"body": {
					"segment": {
						"metadata": {
							"OBJECT_NAME": "TJS-10",
							"OBJECT_ID": "2023-169A",
							"CENTER_NAME": "EARTH",
							"REF_FRAME": "TEME",
							"TIME_SYSTEM": "UTC",
							"MEAN_ELEMENT_THEORY": "SGP4"
						},
						"data": {
							"meanElements": {
								"EPOCH": "2023-11-20T21:15:37.799424",
								"MEAN_MOTION": 1.00277241,
								"ECCENTRICITY": 0.0003033,
								"INCLINATION": 0.108,
								"RA_OF_ASC_NODE": 83.8417,
								"ARG_OF_PERICENTER": 242.7662,
								"MEAN_ANOMALY": 225.326
							},
							"tleParameters": {
								"EPHEMERIS_TYPE": 0,
								"CLASSIFICATION_TYPE": "U",
								"NORAD_CAT_ID": 58204,
								"ELEMENT_SET_NO": 999,
								"REV_AT_EPOCH": 12,
								"BSTAR": 0,
								"MEAN_MOTION_DOT": 1.1e-7,
								"MEAN_MOTION_DDOT": 0
							}
						}
					}
				}
			},
			{
				"header": {
					"CREATION_DATE": "",
					"ORIGINATOR": ""
				},
				"body": {
					"segment": {
						"metadata": {
							"OBJECT_NAME": "CZ-7A R/B",
							"OBJECT_ID": "2023-169B",
							"CENTER_NAME": "EARTH",
							"REF_FRAME": "TEME",
							"TIME_SYSTEM": "UTC",
							"MEAN_ELEMENT_THEORY": "SGP4"
						},
						"data": {
							"meanElements": {
								"EPOCH": "2023-11-20T11:40:38.293248",
								"MEAN_MOTION": 2.53559574,
								"ECCENTRICITY": 0.7143934,
								"INCLINATION": 16.8768,
								"RA_OF_ASC_NODE": 279.6704,
								"ARG_OF_PERICENTER": 192.2701,
								"MEAN_ANOMALY": 130.5392
							},
							"tleParameters": {
								"EPHEMERIS_TYPE": 0,
								"CLASSIFICATION_TYPE": "U",
								"NORAD_CAT_ID": 58205,
								"ELEMENT_SET_NO": 999,
								"REV_AT_EPOCH": 41,
								"BSTAR": 0.0004843,
								"MEAN_MOTION_DOT": 0.00618385,
								"MEAN_MOTION_DDOT": 0.0000042046
							}
						}
					}
				}
			},
			{
				"header": {
					"CREATION_DATE": "",
					"ORIGINATOR": ""
				},
				"body": {
					"segment": {
						"metadata": {
							"OBJECT_NAME": "STARLINK-30800",
							"OBJECT_ID": "2023-170A",
							"CENTER_NAME": "EARTH",
							"REF_FRAME": "TEME",
							"TIME_SYSTEM": "UTC",
							"MEAN_ELEMENT_THEORY": "SGP4"
						},
						"data": {
							"meanElements": {
								"EPOCH": "2023-11-20T22:00:00.999936",
								"MEAN_MOTION": 15.65034628,
								"ECCENTRICITY": 0.0001478,
								"INCLINATION": 43.0002,
								"RA_OF_ASC_NODE": 85.8221,
								"ARG_OF_PERICENTER": 281.8841,
								"MEAN_ANOMALY": 171.9365
							},
							"tleParameters": {
								"EPHEMERIS_TYPE": 0,
								"CLASSIFICATION_TYPE": "U",
								"NORAD_CAT_ID": 58206,
								"ELEMENT_SET_NO": 999,
								"REV_AT_EPOCH": 391,
								"BSTAR": -0.018344,
								"MEAN_MOTION_DOT": -0.01640267,
								"MEAN_MOTION_DDOT": 0
							}
						}
					}
				}
			},
			{
				"header": {
					"CREATION_DATE": "",
					"ORIGINATOR": ""
				},
				"body": {
					"segment": {
						"metadata": {
							"OBJECT_NAME": "STARLINK-30845",
							"OBJECT_ID": "2023-170B",
							"CENTER_NAME": "EARTH",
							"REF_FRAME": "TEME",
							"TIME_SYSTEM": "UTC",
							"MEAN_ELEMENT_THEORY": "SGP4"
						},
						"data": {
							"meanElements": {
								"EPOCH": "2023-11-21T04:00:00.999936",
								"MEAN_MOTION": 15.64127475,
								"ECCENTRICITY": 0.0001423,
								"INCLINATION": 43.0006,
								"RA_OF_ASC_NODE": 84.3263,
								"ARG_OF_PERICENTER": 280.7797,
								"MEAN_ANOMALY": 143.4813
							},
							"tleParameters": {
								"EPHEMERIS_TYPE": 0,
								"CLASSIFICATION_TYPE": "U",
								"NORAD_CAT_ID": 58207,
								"ELEMENT_SET_NO": 999,
								"REV_AT_EPOCH": 394,
								"BSTAR": -0.018956,
								"MEAN_MOTION_DOT": -0.01634945,
								"MEAN_MOTION_DDOT": 0
							}
						}
					}
				}
			},
			{
				"header": {
					"CREATION_DATE": "",
					"ORIGINATOR": ""
				},
				"body": {
					"segment": {
						"metadata": {
							"OBJECT_NAME": "STARLINK-30841",
							"OBJECT_ID": "2023-170C",
							"CENTER_NAME": "EARTH",
							"REF_FRAME": "TEME",
							"TIME_SYSTEM": "UTC",
							"MEAN_ELEMENT_THEORY": "SGP4"
						},
						"data": {
							"meanElements": {
								"EPOCH": "2023-11-21T04:00:00.999936",
								"MEAN_MOTION": 15.64127885,
								"ECCENTRICITY": 0.0001565,
								"INCLINATION": 43.0003,
								"RA_OF_ASC_NODE": 84.3246,
								"ARG_OF_PERICENTER": 272.9648,
								"MEAN_ANOMALY": 151.9067
							},
							"tleParameters": {
								"EPHEMERIS_TYPE": 0,
								"CLASSIFICATION_TYPE": "U",
								"NORAD_CAT_ID": 58208,
								"ELEMENT_SET_NO": 999,
								"REV_AT_EPOCH": 381,
								"BSTAR": -0.018983,
								"MEAN_MOTION_DOT": -0.01637112,
								"MEAN_MOTION_DDOT": 0
							}
						}
					}
				}
			},
			{
				"header": {
					"CREATION_DATE": "",
					"ORIGINATOR": ""
				},
				"body": {
					"segment": {
						"metadata": {
							"OBJECT_NAME": "STARLINK-30839",
							"OBJECT_ID": "2023-170D",
							"CENTER_NAME": "EARTH",
							"REF_FRAME": "TEME",
							"TIME_SYSTEM": "UTC",
							"MEAN_ELEMENT_THEORY": "SGP4"
						},
						"data": {
							"meanElements": {
								"EPOCH": "2023-11-21T04:00:00.999936",
								"MEAN_MOTION": 15.64124334,
								"ECCENTRICITY": 0.0001759,
								"INCLINATION": 43.0005,
								"RA_OF_ASC_NODE": 84.3215,
								"ARG_OF_PERICENTER": 270.9633,
								"MEAN_ANOMALY": 155.128
							},
							"tleParameters": {
								"EPHEMERIS_TYPE": 0,
								"CLASSIFICATION_TYPE": "U",
								"NORAD_CAT_ID": 58209,
								"ELEMENT_SET_NO": 999,
								"REV_AT_EPOCH": 393,
								"BSTAR": -0.018953,
								"MEAN_MOTION_DOT": -0.01634742,
								"MEAN_MOTION_DDOT": 0
							}
						}
					}
				}
			}
		]
	}
}